IRIDIUM 39              
1 25042U 97069D   25343.49408966  .00001449  00000+0  37199-3 0  9996
2 25042  86.3912 136.0235 0019752  81.9533 278.3912 14.49498250474358
IRIDIUM 38              
1 25043U 97069E   25343.49928314  .00000868  00000+0  27887-3 0  9998
2 25043  86.3970 159.4704 0000877 160.9578 199.1653 14.38309262471157
IRIDIUM 42              
1 25077U 97077A   25343.44279096  .00000753  00000+0  25013-3 0  9997
2 25077  86.3979 165.8770 0001231  92.7847 267.3491 14.36527578466357
IRIDIUM 44              
1 25078U 97077B   25343.47963990  .00000787  00000+0  24169-3 0  9992
2 25078  86.3964 147.3316 0002974 129.0344 231.1120 14.40428458468930
IRIDIUM 45              
1 25104U 97082A   25343.47305839  .00038105  00000+0  10829-2 0  9992
2 25104  86.3546 322.2880 0100942  33.2021 327.5506 15.30955394478773
IRIDIUM 24              
1 25105U 97082B   25343.43336835  .00000791  00000+0  23353-3 0  9996
2 25105  86.3911   5.9555 0010166 209.0329 151.0307 14.42322903468477
IRIDIUM 51              
1 25262U 98018A   25343.44130073  .00116190  00000+0  12815-2 0  9998
2 25262  86.3733 327.9371 0048565 289.0657  70.5351 15.61226504474138
IRIDIUM 57              
1 25273U 98019B   25343.49718803  .00000694  00000+0  23200-3 0  9991
2 25273  86.3959  71.7498 0002025  97.4798 262.6629 14.36048237449941
